SBIRS GEO-4 (USA 273)   
1 41937U 17004A   21318.51785587  .00000123  00000-0  00000-0 0  9993
2 41937   2.7601 315.2681 0002504 266.2170 219.3970  1.00272833 17806
HISPASAT 36W-1          
1 41942U 17006A   21318.18452278 -.00000247  00000-0  00000-0 0  9990
2 41942   0.0032 102.6873 0001069 122.5164 218.7477  1.00272767 17423
TELKOM 3S               
1 41944U 17007A   21318.50049524 -.00000365  00000-0  00000-0 0  9996
2 41944   0.0158 272.3562 0002222 319.8776 119.7917  1.00271840 17336
INTELSAT 32E (IS-32E)   
1 41945U 17007B   21318.31715987 -.00000272  00000-0  00000-0 0  9996
2 41945   0.0151 285.9411 0000535 227.5884 331.1077  1.00270419 17432
ECHOSTAR 23             
1 42070U 17014A   21318.48428723 -.00000272  00000-0  00000-0 0  9991
2 42070   0.0162 273.0813 0002338 326.6280 280.5307  1.00268783 17133
WGS F9 (USA 275)        
1 42075U 17016A   21318.30397087 -.00000099  00000-0  00000-0 0  9994
2 42075   0.0142 287.2808 0000586 276.8718 306.8884  1.00272841 17101
SES-10                  
1 42432U 17017A   21318.48446167 -.00000275  00000-0  00000-0 0  9991
2 42432   0.0122 306.2241 0002895 282.4429 292.6603  1.00272117 16944
CHINASAT 16 (SJ-13)     
1 42662U 17018A   21316.98086870 -.00000359  00000-0  00000-0 0  9994
2 42662   0.0435  67.5608 0007236 170.4847 277.8615  1.00268364 16929
KOREASAT 7              
1 42691U 17023A   21318.50049524 -.00000364  00000-0  00000-0 0  9993
2 42691   0.0358  79.3818 0001454 148.5149 122.0409  1.00272092 16572
SGDC                    
1 42692U 17023B   21318.05962280 -.00000253  00000-0  00000+0 0  9993
2 42692   0.0130  41.8616 0002219 181.0529 137.0682  1.00270947 16649
GSAT-9                  
1 42695U 17024A   21318.51716852 -.00000289  00000-0  00000-0 0  9990
2 42695   0.0361 270.7530 0002414 318.0762 108.5181  1.00270627 16501
INMARSAT 5-F4           
1 42698U 17025A   21318.50905722  .00000073  00000-0  00000-0 0  9999
2 42698   0.0185 285.7939 0000013 225.1655 142.6064  1.00268471 16467
SES-15                  
1 42709U 17026A   21318.48125116  .00000058  00000-0  00000-0 0  9994
2 42709   0.0279  21.2681 0000439 193.0683 243.5818  1.00268443 17342
QZS-2 (MICHIBIKI-2)     
1 42738U 17028A   21315.20167078 -.00000248  00000-0  00000-0 0  9990
2 42738  42.1410 267.2541 0743357 270.9292  81.4729  1.00247291 16313
VIASAT-2                
1 42740U 17029A   21318.48385115 -.00000267  00000-0  00000-0 0  9992
2 42740   0.0200 275.7156 0000100 229.8609  12.5121  1.00271090 16381
EUTELSAT 172B           
1 42741U 17029B   21318.53208285 -.00000008  00000-0  00000-0 0  9994
2 42741   0.0244 183.6372 0000149 268.4571 325.3227  1.00272262 16910
GSAT-19                 
1 42747U 17031A   21318.50731286  .00000122  00000-0  00000-0 0  9998
2 42747   0.0026  95.3502 0002993  46.5325 142.4909  1.00273198 16339
ECHOSTAR 21             
1 42749U 17032A   21318.23868748  .00000055  00000-0  00000-0 0  9990
2 42749   4.4394 311.1501 0002239 268.0502 290.5540  1.00271552 16301
BULGARIASAT-1           
1 42801U 17038A   21318.29493677  .00000009  00000-0  00000-0 0  9995
2 42801   0.0643  97.5099 0002595 135.6543 288.5467  1.00272259 16024
HELLAS-SAT 3            
1 42814U 17040A   21318.50556851  .00000150  00000-0  00000-0 0  9997
2 42814   0.0690  54.6886 0001002 220.8647 359.2891  1.00274079 16010
GSAT-17                 
1 42815U 17040B   21318.34077028 -.00000261  00000-0  00000-0 0  9998
2 42815   0.0124 278.2663 0006170 326.6041  24.9750  1.00271250 15987
INTELSAT 35E (IS-35E)   
1 42818U 17041A   21318.31715987 -.00000241  00000-0  00000-0 0  9990
2 42818   0.0266 152.4999 0001701  72.7069 268.1298  1.00270717 16017
COSMOS 2520             
1 42907U 17046A   21317.98018058  .00000132  00000-0  00000-0 0  9999
2 42907   0.0316 154.6257 0000693 222.7084  73.8814  1.00273899 15586
TDRS 13                 
1 42915U 17047A   21318.29957485 -.00000111  00000-0  00000-0 0  9998
2 42915   4.7909 331.8463 0013501 116.1963  61.8688  1.00271917 15547
QZS-3 (MICHIBIKI-3)     
1 42917U 17048A   21318.61230042 -.00000350  00000-0  00000-0 0  9995
2 42917   0.0643 146.5185 0001905  97.7268 157.1817  1.00272010 15450
AMAZONAS 5              
1 42934U 17053A   21318.48559551 -.00000285  00000-0  00000-0 0  9991
2 42934   0.0327 312.7060 0003358 305.1779 269.7759  1.00274044 15289
ASIASAT 9               
1 42942U 17057A   21318.35502719 -.00000363  00000-0  00000-0 0  9991
2 42942   0.0190 111.7216 0002202 115.9819  75.8900  1.00269275 15133
INTELSAT 37E (IS-37E)   
1 42950U 17059A   21318.30604832 -.00000144  00000-0  00000-0 0  9993
2 42950   0.0148 285.1055 0002781 305.1894 275.5132  1.00270017 15266
BSAT-4A                 
1 42951U 17059B   21318.44424566 -.00000353  00000-0  00000-0 0  9995
2 42951   0.1010  70.3739 0000781 270.5464 342.6185  1.00269385 14994
QZS-4 (MICHIBIKI-4)     
1 42965U 17062A   21318.45541799 -.00000349  00000-0  00000-0 0  9998
2 42965  40.8083   4.8873 0749932 270.6159  81.0059  1.00264428 15001
SES-11 (ECHOSTAR 105)   
1 42967U 17063A   21318.53371215 -.00000091  00000-0  00000-0 0  9998
2 42967   0.0109 291.1400 0002624 316.8754 253.0230  1.00270249 14921
KOREASAT 5A             
1 42984U 17067A   21318.44424566 -.00000361  00000-0  00000-0 0  9999
2 42984   0.0035 333.6422 0001625 245.9986 107.2288  1.00272715 14735
ALCOMSAT 1              
1 43039U 17078A   21318.21368799 -.00000188  00000-0  00000-0 0  9990
2 43039   0.0603 125.3139 0002463 114.1939 226.1904  1.00272949 14482
SBIRS GEO-3 (USA 282)   
1 43162U 18009A   21318.52554146 -.00000300  00000-0  00000-0 0  9995
2 43162   3.9590 317.8145 0002543 264.1534 160.0863  1.00271768 14047
AL YAH 3                
1 43174U 18012A   21318.30604832 -.00000158  00000-0  00000-0 0  9997
2 43174   0.0168 286.7606 0001828 309.3224 267.6458  1.00273289 14053
SES-14                  
1 43175U 18012B   21318.48829927 -.00000280  00000-0  00000-0 0  9997
2 43175   0.0128 300.4966 0001119 282.2153 319.4069  1.00271849 14263
GOES 17                 
1 43226U 18022A   21318.45818767  .00000095  00000-0  00000-0 0  9995
2 43226   0.0259 268.4242 0000412 302.9300 230.1712  1.00271072 13614
HISPASAT 30W-6          
1 43228U 18023A   21318.31160271 -.00000218  00000-0  00000-0 0  9991
2 43228   0.0465  50.6409 0002371 187.3826 257.8249  1.00271917 13669
SUPERBIRD 8             
1 43271U 18033A   21318.60118880 -.00000094  00000-0  00000-0 0  9993
2 43271   0.0312 100.0687 0001186 138.9439 193.3602  1.00272138 13248
HYLAS 4                 
1 43272U 18033B   21318.31698626 -.00000236  00000-0  00000-0 0  9991
2 43272   0.0279 221.2018 0002739 344.7194 288.3520  1.00270642 13281
IRNSS-1I                
1 43286U 18035A   21317.98729890  .00000116  00000-0  00000-0 0  9994
2 43286  28.6058 100.8763 0022249 178.9012 184.0055  1.00271238 13276
USA 283                 
1 43339U 18036A   21318.61230041 -.00000319  00000-0  00000+0 0  9995
2 43339   0.0264 274.0952 0000548 353.7734 140.5971  1.00270973  1944
COSMOS 2526             
1 43432U 18037A   21318.24771795 -.00000348  00000-0  00000-0 0  9998
2 43432   0.0193 143.6633 0000829 185.9844 301.1961  1.00267219 13165
APSTAR 6C               
1 43450U 18041A   21314.72054222 -.00000325  00000-0  00000+0 0  9995
2 43450   0.0101 263.9574 0002699 325.2311 214.2899  1.00267964 13003
BANGABANDHUSAT-1        
1 43463U 18044A   21318.50049524 -.00000365  00000-0  00000-0 0  9996
2 43463   0.0045  63.9792 0001990 169.5343 119.6021  1.00271872 12907
SES-12                  
1 43488U 18049A   21318.34077028 -.00000272  00000-0  00000-0 0  9997
2 43488   0.0219  51.6399 0002614 212.6819   7.0142  1.00269300 12611
FENGYUN 2H              
1 43491U 18050A   21318.51359257 -.00000131  00000-0  00000-0 0  9993
2 43491   0.6088 102.8529 0003671  46.2821 168.8825  1.00272507 12636
BEIDOU IGSO-7           
1 43539U 18057A   21318.55546796 -.00000080  00000-0  00000-0 0  9996
2 43539  55.0606 177.6141 0040324 221.7461 328.0346  1.00276020 12356
TELSTAR 19V             
1 43562U 18059A   21318.48524663 -.00000282  00000-0  00000-0 0  9999
2 43562   0.0150 251.4323 0002636 285.1311 348.9390  1.00270754 12359
TELKOM 4 (MERAH PUTIH)  
1 43587U 18064A   21318.52567130 -.00000347  00000-0  00000-0 0  9995
2 43587   0.0162 271.1380 0001517 336.8406 103.1203  1.00272151 12062
TELSTAR 18V (APSTAR 5C) 
1 43611U 18069A   21318.60674609 -.00000296  00000-0  00000-0 0  9990
2 43611   0.0160 287.2252 0002074 297.9588 185.1653  1.00267676 11829
AZERSPACE 2 (IS-38)     
1 43632U 18074A   21318.27271664  .00000133  00000-0  00000-0 0  9995
2 43632   0.0180 277.0956 0001558 323.6137 316.1608  1.00269379 11665
HORIZONS 3E             
1 43633U 18074B   21318.46716104 -.00000034  00000-0  00000-0 0  9991
2 43633   0.0344  75.6985 0001780 245.5149  69.7725  1.00266154 11539
AEHF-4 (USA 288)        
1 43651U 18079A   21318.48428723 -.00000282  00000-0  00000-0 0  9990
2 43651   2.8508 313.9130 0003323 284.4110 282.3744  1.00271864 11499
BEIDOU-3 G1             
1 43683U 18085A   21318.60674609 -.00000279  00000-0  00000-0 0  9998
2 43683   0.8748 205.3067 0004890  34.7421 172.2680  1.00276085 11252
GSAT-29                 
1 43698U 18089A   21318.50879557  .00000083  00000-0  00000-0 0  9998
2 43698   0.0198  97.6057 0003849 135.4722  58.9676  1.00270622 10981
ES'HAIL 2               
1 43700U 18090A   21318.50295194  .00000142  00000-0  00000-0 0  9999
2 43700   0.0018  50.0878 0002408 204.4350   6.1727  1.00273782 10874
GEO-KOMPSAT-2A          
1 43823U 18100A   21318.61230042 -.00000346  00000-0  00000-0 0  9997
2 43823   0.0141 258.4377 0002476 352.8019 151.3853  1.00268816 10819
GSAT-11                 
1 43824U 18100B   21318.51254595 -.00000080  00000-0  00000-0 0  9991
2 43824   0.0170 274.8422 0004326 213.6403 183.8494  1.00272590 10705
